[
    {
        "Altitude(m)": 604234.5921201782,
        "Argument of Periapsis(deg)": 0.0,
        "Eccentricity": 0.0,
        "Inclination(deg)": 60.0,
        "Latitude(deg)": 14.117138193592613,
        "Longitude(deg)": -48.27268572374666,
        "Mean Anomaly(deg)": -196.36359999999996,
        "RAAN(deg)": 240.0,
        "Satellite Name": "Test1 1066",
        "Satellite Number": 1066,
        "Semi-Major Axis(m)": 6980739.136638005,
        "Time(s)": 0
    },
    {
        "Altitude(m)": 604223.4213319024,
        "Argument of Periapsis(deg)": 0.00010418945913296404,
        "Eccentricity": 0.0,
        "Inclination(deg)": 60.0,
        "Latitude(deg)": 13.582274821289372,
        "Longitude(deg)": -47.985776150087254,
        "Mean Anomaly(deg)": -195.7434938545382,
        "RAAN(deg)": 239.99957995086024,
        "Satellite Name": "Test1 1066",
        "Satellite Number": 1066,
        "Semi-Major Axis(m)": 6980739.136638005,
        "Time(s)": 10
    },
    {
        "Altitude(m)": 604215.2058099332,
        "Argument of Periapsis(deg)": 0.0002083789182659281,
        "Eccentricity": 0.0,
        "Inclination(deg)": 60.0,
        "Latitude(deg)": 13.04696331289212,
        "Longitude(deg)": -47.70033707986581,
        "Mean Anomaly(deg)": -195.12338770907633,
        "RAAN(deg)": 239.99915990172047,
        "Satellite Name": "Test1 1066",
        "Satellite Number": 1066,
        "Semi-Major Axis(m)": 6980739.136638005,
        "Time(s)": 20
    },
    {
        "Altitude(m)": 604209.9734460466,
        "Argument of Periapsis(deg)": 0.00031256837739889213,
        "Eccentricity": 0.0,
        "Inclination(deg)": 60.0,
        "Latitude(deg)": 12.511224057091537,
        "Longitude(deg)": -47.41630379978319,
        "Mean Anomaly(deg)": -194.5032815636145,
        "RAAN(deg)": 239.99873985258077,
        "Satellite Name": "Test1 1066",
        "Satellite Number": 1066,
        "Semi-Major Axis(m)": 6980739.136638005,
        "Time(s)": 30
    },
    {
        "Altitude(m)": 604207.750787944,
        "Argument of Periapsis(deg)": 0.0004167578365318562,
        "Eccentricity": 0.0,
        "Inclination(deg)": 60.0,
        "Latitude(deg)": 11.975077166623839,
        "Longitude(deg)": -47.13361194191039,
        "Mean Anomaly(deg)": -193.88317541815266,
        "RAAN(deg)": 239.99831980344103,
        "Satellite Name": "Test1 1066",
        "Satellite Number": 1066,
        "Semi-Major Axis(m)": 6980739.136638005,
        "Time(s)": 40
    },
    {
        "Altitude(m)": 604208.5630235168,
        "Argument of Periapsis(deg)": 0.0005209472956648203,
        "Eccentricity": 0.0,
        "Inclination(deg)": 60.0,
        "Latitude(deg)": 11.438542492217307,
        "Longitude(deg)": -46.852198451971525,
        "Mean Anomaly(deg)": -193.2630692726908,
        "RAAN(deg)": 239.99789975430127,
        "Satellite Name": "Test1 1066",
        "Satellite Number": 1066,
        "Semi-Major Axis(m)": 6980739.136638005,
        "Time(s)": 50
    },
    {
        "Altitude(m)": 604212.4339656803,
        "Argument of Periapsis(deg)": 0.0006251367547977843,
        "Eccentricity": 0.0,
        "Inclination(deg)": 60.0,
        "Latitude(deg)": 10.901639636183539,
        "Longitude(deg)": -46.57200104544293,
        "Mean Anomaly(deg)": -192.64296312722897,
        "RAAN(deg)": 239.9974797051615,
        "Satellite Name": "Test1 1066",
        "Satellite Number": 1066,
        "Semi-Major Axis(m)": 6980739.136638005,
        "Time(s)": 60
    },
    {
        "Altitude(m)": 604219.3860379218,
        "Argument of Periapsis(deg)": 0.0007293262139307483,
        "Eccentricity": 0.0,
        "Inclination(deg)": 60.0,
        "Latitude(deg)": 10.364387965671176,
        "Longitude(deg)": -46.29295766430966,
        "Mean Anomaly(deg)": -192.02285698176718,
        "RAAN(deg)": 239.9970596560218,
        "Satellite Name": "Test1 1066",
        "Satellite Number": 1066,
        "Semi-Major Axis(m)": 6980739.136638005,
        "Time(s)": 70
    },
    {
        "Altitude(m)": 604229.4402604825,
        "Argument of Periapsis(deg)": 0.0008335156730637124,
        "Eccentricity": 0.0,
        "Inclination(deg)": 60.0,
        "Latitude(deg)": 9.826806625598564,
        "Longitude(deg)": -46.015007447324884,
        "Mean Anomaly(deg)": -191.40275083630533,
        "RAAN(deg)": 239.99663960688207,
        "Satellite Name": "Test1 1066",
        "Satellite Number": 1066,
        "Semi-Major Axis(m)": 6980739.136638005,
        "Time(s)": 80
    },
    {
        "Altitude(m)": 604242.6162372631,
        "Argument of Periapsis(deg)": 0.0009377051321966765,
        "Eccentricity": 0.0,
        "Inclination(deg)": 60.0,
        "Latitude(deg)": 9.28891455128753,
        "Longitude(deg)": -45.73809018799589,
        "Mean Anomaly(deg)": -190.7826446908435,
        "RAAN(deg)": 239.9962195577423,
        "Satellite Name": "Test1 1066",
        "Satellite Number": 1066,
        "Semi-Major Axis(m)": 6980739.136638005,
        "Time(s)": 90
    },
    {
        "Altitude(m)": 604258.9321433805,
        "Argument of Periapsis(deg)": 0.0010418945913296407,
        "Eccentricity": 0.0,
        "Inclination(deg)": 60.0,
        "Latitude(deg)": 8.750730480812797,
        "Longitude(deg)": -45.46214579313961,
        "Mean Anomaly(deg)": -190.16253854538172,
        "RAAN(deg)": 239.99579950860254,
        "Satellite Name": "Test1 1066",
        "Satellite Number": 1066,
        "Semi-Major Axis(m)": 6980739.136638005,
        "Time(s)": 100
    },
    {
        "Altitude(m)": 604278.4047134345,
        "Argument of Periapsis(deg)": 0.0011460840504626045,
        "Eccentricity": 0.0,
        "Inclination(deg)": 60.0,
        "Latitude(deg)": 8.212272967084308,
        "Longitude(deg)": -45.18711525485249,
        "Mean Anomaly(deg)": -189.54243239991987,
        "RAAN(deg)": 239.99537945946284,
        "Satellite Name": "Test1 1066",
        "Satellite Number": 1066,
        "Semi-Major Axis(m)": 6980739.136638005,
        "Time(s)": 110
    },
    {
        "Altitude(m)": 604301.0492304745,
        "Argument of Periapsis(deg)": 0.0012502735095955685,
        "Eccentricity": 0.0,
        "Inclination(deg)": 60.0,
        "Latitude(deg)": 7.673560389680927,
        "Longitude(deg)": -44.91294011011731,
        "Mean Anomaly(deg)": -188.92232625445806,
        "RAAN(deg)": 239.9949594103231,
        "Satellite Name": "Test1 1066",
        "Satellite Number": 1066,
        "Semi-Major Axis(m)": 6980739.136638005,
        "Time(s)": 120
    },
    {
        "Altitude(m)": 604326.8795156595,
        "Argument of Periapsis(deg)": 0.0013544629687285324,
        "Eccentricity": 0.0,
        "Inclination(deg)": 60.0,
        "Latitude(deg)": 7.134610966451133,
        "Longitude(deg)": -44.63956190089087,
        "Mean Anomaly(deg)": -188.3022201089962,
        "RAAN(deg)": 239.99453936118334,
        "Satellite Name": "Test1 1066",
        "Satellite Number": 1066,
        "Semi-Major Axis(m)": 6980739.136638005,
        "Time(s)": 130
    },
    {
        "Altitude(m)": 604355.9079186671,
        "Argument of Periapsis(deg)": 0.0014586524278614966,
        "Eccentricity": 0.0,
        "Inclination(deg)": 60.0,
        "Latitude(deg)": 6.595442764894936,
        "Longitude(deg)": -44.36692314751641,
        "Mean Anomaly(deg)": -187.68211396353433,
        "RAAN(deg)": 239.99411931204355,
        "Satellite Name": "Test1 1066",
        "Satellite Number": 1066,
        "Semi-Major Axis(m)": 6980739.136638005,
        "Time(s)": 140
    },
    {
        "Altitude(m)": 604388.1453087766,
        "Argument of Periapsis(deg)": 0.0015628418869944607,
        "Eccentricity": 0.0,
        "Inclination(deg)": 60.0,
        "Latitude(deg)": 6.056073713345716,
        "Longitude(deg)": -44.09496680968409,
        "Mean Anomaly(deg)": -187.06200781807254,
        "RAAN(deg)": 239.99369926290387,
        "Satellite Name": "Test1 1066",
        "Satellite Number": 1066,
        "Semi-Major Axis(m)": 6980739.136638005,
        "Time(s)": 150
    },
    {
        "Altitude(m)": 604423.6010667193,
        "Argument of Periapsis(deg)": 0.0016670313461274247,
        "Eccentricity": 0.0,
        "Inclination(deg)": 60.0,
        "Latitude(deg)": 5.516521611965842,
        "Longitude(deg)": -43.823635747783946,
        "Mean Anomaly(deg)": -186.4419016726107,
        "RAAN(deg)": 239.99327921376414,
        "Satellite Name": "Test1 1066",
        "Satellite Number": 1066,
        "Semi-Major Axis(m)": 6980739.136638005,
        "Time(s)": 160
    },
    {
        "Altitude(m)": 604462.2830772102,
        "Argument of Periapsis(deg)": 0.0017712208052603888,
        "Eccentricity": 0.0,
        "Inclination(deg)": 60.0,
        "Latitude(deg)": 4.976804143569753,
        "Longitude(deg)": -43.55287369749367,
        "Mean Anomaly(deg)": -185.82179552714885,
        "RAAN(deg)": 239.99285916462435,
        "Satellite Name": "Test1 1066",
        "Satellite Number": 1066,
        "Semi-Major Axis(m)": 6980739.136638005,
        "Time(s)": 170
    },
    {
        "Altitude(m)": 604504.1977222641,
        "Argument of Periapsis(deg)": 0.001875410264393353,
        "Eccentricity": 0.0,
        "Inclination(deg)": 60.0,
        "Latitude(deg)": 4.436938884292037,
        "Longitude(deg)": -43.28262473182715,
        "Mean Anomaly(deg)": -185.20168938168703,
        "RAAN(deg)": 239.9924391154846,
        "Satellite Name": "Test1 1066",
        "Satellite Number": 1066,
        "Semi-Major Axis(m)": 6980739.136638005,
        "Time(s)": 180
    },
    {
        "Altitude(m)": 604549.3498752088,
        "Argument of Periapsis(deg)": 0.0019795997235263173,
        "Eccentricity": 0.0,
        "Inclination(deg)": 60.0,
        "Latitude(deg)": 3.896943314113799,
        "Longitude(deg)": -43.0128327234857,
        "Mean Anomaly(deg)": -184.58158323622519,
        "RAAN(deg)": 239.9920190663449,
        "Satellite Name": "Test1 1066",
        "Satellite Number": 1066,
        "Semi-Major Axis(m)": 6980739.136638005,
        "Time(s)": 190
    }
]